FENGYUN 3C              
1 39260U 13052A   23064.37236105  .00000202  00000+0  12316-3 0  9992
2 39260  98.4367  83.9957 0010126 239.6048 120.4162 14.15998609488842
CASSIOPE                
1 39265U 13055A   23063.84604569  .00021707  00000+0  55175-3 0  9997
2 39265  80.9666 349.7519 0586493 262.4144  91.0093 14.47365213489849
ZACUBE-1 (TSHEPISOSAT)  
1 39417U 13066B   23064.16224999  .00007407  00000+0  87407-3 0  9993
2 39417  97.6723  29.6213 0053967 269.5811  89.9219 14.83947405501767
CINEMA-3 (KHUSAT-2)     
1 39426U 13066L   23063.76801480  .00003334  00000+0  50842-3 0  9992
2 39426  97.8226 357.8142 0103219 121.2280 239.9091 14.70950748497527
TRITON-1                
1 39427U 13066M   23064.54943676  .00004892  00000+0  74716-3 0  9990
2 39427  97.8322 354.4037 0110342 148.8592 211.9217 14.70173056497313
DELFI-N3XT              
1 39428U 13066N   23063.76615992  .00007617  00000+0  11242-2 0  9993
2 39428  97.8309 352.4246 0113544 163.6874 196.8036 14.71208893496772
GOMX-1                  
1 39430U 13066Q   23064.53750289  .00004777  00000+0  84196-3 0  9994
2 39430  97.7921 321.6885 0145937 301.4598  57.2416 14.61214230494408
BRITE-PL1 (LEM)         
1 39431U 13066R   23064.46309353  .00002280  00000+0  48735-3 0  9995
2 39431  97.6804 259.6872 0201343 139.2563 222.3891 14.47744460490323
ICUBE-1                 
1 39432U 13066S   23064.20495066  .00011657  00000+0  10859-2 0  9998
2 39432  97.4804  59.8558 0032071 110.0546 250.4131 14.94019535504810
HUMSAT-D                
1 39433U 13066T   23064.44774319  .00014603  00000+0  12549-2 0  9998
2 39433  97.4515  67.9540 0030050  81.5003 278.9623 14.97171455505406
VELOX-PII               
1 39438U 13066Y   23063.84063877  .00007750  00000+0  98821-3 0  9999
2 39438  97.7294  20.9177 0066947 330.0034  29.7350 14.80174549499504
FIRST-MOVE              
1 39439U 13066Z   23063.70559544  .00016400  00000+0  17612-2 0  9996
2 39439  97.6694  32.4673 0056460 263.0401  96.4391 14.87462605500687
CUBEBUG-2 (LO-74)       
1 39440U 13066AA  23064.18621819  .00009588  00000+0  12569-2 0  9991
2 39440  97.7612  16.4668 0077141   6.8603 353.3645 14.78441538499981
NEE-02 KRYSAOR          
1 39441U 13066AB  23063.82811316  .00006387  00000+0  87157-3 0  9995
2 39441  97.7722  13.1043 0080054  23.3591 337.1224 14.76736103498448
FUNCUBE-1 (AO-73)       
1 39444U 13066AE  23064.50579919  .00009593  00000+0  10920-2 0  9999
2 39444  97.6594  32.4233 0052317 254.1978 105.3465 14.85400675500837
HINCUBE                 
1 39445U 13066AF  23064.18976804  .00010077  00000+0  11535-2 0  9990
2 39445  97.6611  31.9062 0052381 257.9078 101.6266 14.85157524500318
UWE-3                   
1 39446U 13066AG  23064.49645617  .00009193  00000+0  11470-2 0  9995
2 39446  97.7225  23.0062 0065519 319.3548  40.2784 14.81086971499666
AIST-1 (RS-41)          
1 39492U 13078C   23064.51146694  .00003642  00000+0  38170-3 0  9993
2 39492  82.4222 346.7255 0018700 325.8981  34.1059 14.89202595498629
SPROUT                  
1 39770U 14029E   23064.29161641  .00028378  00000+0  24668-2 0  9992
2 39770  97.9548 189.0243 0008185 294.6497  65.3933 14.96909787476589
UNISAT-6                
1 40012U 14033C   23063.75909653  .00005210  00000+0  74323-3 0  9995
2 40012  97.6652 243.0346 0056873  36.2767 324.2278 14.76034181468366
BUGSAT-1 (TITA)         
1 40014U 14033E   23063.96060484  .00007349  00000+0  61639-3 0  9991
2 40014  98.1454  78.2984 0028948 254.3682 105.4353 14.98371051475120
DUCHIFAT-1              
1 40021U 14033M   23064.48806788  .00015838  00000+0  14192-2 0  9995
2 40021  98.0458  25.3361 0009319 256.1348 103.8835 14.95852732473675
NANOSATC-BR1            
1 40024U 14033Q   23064.52458812  .00012864  00000+0  12038-2 0  9997
2 40024  98.0164  17.2483 0009152 266.3816  93.6357 14.94197399473445
QB50P1                  
1 40025U 14033R   23063.80695293  .00010205  00000+0  99766-3 0  9995
2 40025  97.9870   8.8678 0009438 283.0955  76.9210 14.92519254473074
DTUSAT-2                
1 40030U 14033W   23064.50242031  .00010030  00000+0  99832-3 0  9997
2 40030  97.9594   3.8590 0009127 276.3436  83.6742 14.91808949473048
QB50P2                  
1 40032U 14033Y   23063.74046548  .00008765  00000+0  87371-3 0  9996
2 40032  97.9593   3.1067 0009196 281.0468  78.9716 14.91789666472394
POLYITAN-1              
1 40042U 14033AJ  23064.19145690  .00013777  00000+0  13274-2 0  9994
2 40042  97.9982  10.8794 0011256 271.6144  88.3785 14.93005709473028
TIGRISAT                
1 40043U 14033AK  23064.48049522  .00004073  00000+0  58319-3 0  9993
2 40043  97.6582 244.8237 0058840  31.3130 329.1563 14.75914465468414
AISAT                   
1 40054U 14034B   23063.78452753  .00012195  00000+0  15461-2 0  9996
2 40054  98.3673 251.1520 0011648 199.5429 160.5337 14.81843753467990
CANX-4                  
1 40055U 14034C   23064.46052252  .00003531  00000+0  51906-3 0  9992
2 40055  98.3802 235.4879 0013097 246.0239 113.9599 14.76091394467244
CANX-5                  
1 40056U 14034D   23063.72184317  .00003252  00000+0  47874-3 0  9998
2 40056  98.3802 234.7049 0013095 248.8393 111.1417 14.76086147457917
VELOX-I                 
1 40057U 14034E   23064.45812298  .00007172  00000+0  93613-3 0  9993
2 40057  98.3729 252.8590 0010298 211.8261 148.2411 14.80800847468074
METEOR-M 2              
1 40069U 14037A   23064.32426272  .00000160  00000+0  93569-4 0  9999
2 40069  98.4265  75.1098 0004691 287.7231  72.3447 14.20750966448907
DX1                     
1 40071U 14037C   23064.60811815  .00002770  00000+0  35169-3 0  9994
2 40071  98.3750 310.8670 0007831 190.0917 170.0157 14.82537724468021
UKUBE-1                 
1 40074U 14037F   23064.20855904  .00007056  00000+0  79236-3 0  9995
2 40074  98.3540 323.2778 0003659 144.2771 215.8710 14.87084928468796
FIREBIRD 3              
1 40377U 15003B   23064.26829072  .00101927  00000+0  18049-2 0  9994
2 40377  99.0767 354.6522 0067407 210.3819 149.3512 15.47371307448454
FIREBIRD 4              
1 40378U 15003C   23064.27595633  .00101787  00000+0  17964-2 0  9998
2 40378  99.0780 354.9503 0067343 209.8951 149.8441 15.47469814448469
GRIFEX                  
1 40379U 15003D   23064.26676055  .00047231  00000+0  12976-2 0  9997
2 40379  99.0817 336.7435 0093644 267.6101  91.4412 15.32693687447421
CP10 (EXOCUBE)          
1 40380U 15003E   23063.66393555  .00039863  00000+0  12824-2 0  9997
2 40380  99.0901 327.1160 0106845 300.2250  58.8437 15.26680663446744
DEORBITSAIL             
1 40719U 15032E   23064.44163475  .00009449  00000+0  12444-2 0  9993
2 40719  97.7503 298.8195 0013840 234.7026 125.2893 14.80275121412464
NUDT-PHONESAT           
1 40900U 15049B   23063.27566064  .00333096  00000+0  23795-2 0  9993
2 40900  97.3711  91.3033 0005802  96.2074 327.4580 15.72779918414762
XW-2A                   
1 40903U 15049E   23064.43059321  .00184340  00000+0  99684-3 0  9995
2 40903  97.1343 130.8545 0007076 206.6643 207.7551 15.79560891419998
XW-2C                   
1 40906U 15049H   23064.51789580  .00017142  00000+0  72264-3 0  9994
2 40906  97.4978  71.5096 0013340 156.8730   7.3486 15.23308758412595
XW-2D                   
1 40907U 15049J   23064.51651087  .00020297  00000+0  82170-3 0  9997
2 40907  97.4961  71.8036 0012757 150.5757   1.3305 15.24644051412668
LILACSAT-2              
1 40908U 15049K   23064.50077175  .00009043  00000+0  44529-3 0  9999
2 40908  97.5257  67.9566 0014161 183.3669 328.0589 15.18118955412057
XW-2E                   
1 40909U 15049L   23064.51570455  .00034440  00000+0  11288-2 0  9994
2 40909  97.4621  77.2107 0012208 123.7711  27.4615 15.31488005413235
XW-2F                   
1 40910U 15049M   23064.47317856  .00034454  00000+0  11497-2 0  9992
2 40910  97.4706  76.3727 0012729 126.6131  32.5038 15.30903781412984
XW-2B                   
1 40911U 15049N   23064.49873316  .00020077  00000+0  81703-3 0  9997
2 40911  97.4942  72.2795 0012729 153.0162 358.3548 15.24471621412548
KAITUO 1B               
1 40912U 15049P   23064.52511654  .00040595  00000+0  11775-2 0  9994
2 40912  97.4288  80.8358 0013371  93.5815  64.6854 15.35327083413653
LAPAN-A2                
1 40931U 15052B   23064.45188494  .00001518  00000+0  12087-3 0  9993
2 40931   5.9938 106.9843 0013268 264.8988  94.9683 14.77066649401991
LQSAT                   
1 40958U 15057A   23064.16821969  .00001304  00000+0  20668-3 0  9993
2 40958  97.7174 103.2395 0017475 195.7001 164.3689 14.73692041398377
ATHENOXAT 1             
1 41168U 15077C   23064.00766245  .00085460  00000+0  23209-2 0  9995
2 41168  14.9879 305.0047 0007972 332.1800 159.0871 15.35724632400161
GALASSIA                
1 41170U 15077E   23063.80177788  .00059004  00000+0  19283-2 0  9995
2 41170  14.9879 303.4680 0009866 344.7521  15.2504 15.29845251399990
VELOX-II                
1 41171U 15077F   23064.09081540  .00034094  00000+0  13963-2 0  9999
2 41171  14.9917  31.0508 0006809 160.9472 199.1105 15.22265178399349
CHUBUSAT-2              
1 41338U 16012B   23063.64854816  .00008193  00000+0  58828-3 0  9999
2 41338  31.0023 165.6869 0012635 215.4562 144.5235 15.02937218386631
CHUBUSAT-3              
1 41339U 16012C   23064.34654646  .00006361  00000+0  45591-3 0  9995
2 41339  31.0102 158.2018 0012724 230.4611  20.8755 15.02895135386730
HORYU-4                 
1 41340U 16012D   23063.87733361  .00012759  00000+0  84632-3 0  9993
2 41340  31.0040 133.4120 0011742 273.9845  85.9450 15.06016288386970
OUFTI-1                 
1 41458U 16025C   23063.74684922  .00052819  00000+0  17081-2 0  9995
2 41458  98.1906 257.0030 0116030  94.7054 266.7444 15.25522897377088
E-ST@R-II               
1 41459U 16025D   23064.47732258  .00039688  00000+0  13564-2 0  9994
2 41459  98.1931 255.7401 0121209  98.9228 262.6129 15.23334940377079
